     2.11           N: GPS NAV DATA                         RINEX VERSION / TYPE
teqc  2019Feb25                         20221121 12:27:18UTCPGM / RUN BY / DATE
OSX ker:10.11.6|Core i5|gcc 4.3 -m64|OSX ker:10.10+|=+      COMMENT
    7.4506D-09  1.4901D-08 -5.9605D-08 -1.1921D-07          ION ALPHA
    7.9872D+04  1.6384D+04 -1.3107D+05 -1.3107D+05          ION BETA
   -2.793967723846D-09-3.552713678801D-15   405504     1549 DELTA-UTC: A0,A1,T,W
                                                            END OF HEADER
23 09  9 15  0  0  0.0 3.885696642101D-04-3.410605131648D-13 0.000000000000D+00
    6.700000000000D+01 9.237500000000D+01 4.056597544999D-09-2.230006515054D+00
    4.731118679047D-06 6.468853796832D-03 1.023337244987D-05 5.153576992035D+03
    1.728000000000D+05-1.080334186554D-07-2.999648246133D-01-7.264316082001D-08
    9.700606784638D-01 1.872500000000D+02 2.971104720449D+00-7.840683738807D-09
    2.535819912792D-11 1.000000000000D+00 1.549000000000D+03 0.000000000000D+00
    2.000000000000D+00 0.000000000000D+00-2.002343535423D-08 6.700000000000D+01
    1.699920000000D+05 4.000000000000D+00
12 09  9 15  0  0  0.0-2.188677899539D-04 5.684341886081D-12 0.000000000000D+00
    5.600000000000D+01-1.243750000000D+02 4.243033882249D-09 2.459981409357D+00
   -6.651505827904D-06 3.098426270299D-03 7.554888725281D-06 5.153581106186D+03
    1.728000000000D+05 2.421438694000D-08 1.794368605055D+00 5.215406417847D-08
    9.678184902563D-01 2.343125000000D+02-5.872291606116D-01-8.028548706994D-09
   -1.592923494515D-10 1.000000000000D+00 1.549000000000D+03 0.000000000000D+00
    2.000000000000D+00 0.000000000000D+00-1.164153218269D-08 5.600000000000D+01
    1.668120000000D+05 4.000000000000D+00
30 09  9 15  0  0  0.0 1.769615337253D-04 3.069544618484D-12 0.000000000000D+00
    4.300000000000D+01-1.192500000000D+02 4.664837166335D-09-3.916562171392D-02
   -6.427988409996D-06 1.191416615620D-02 7.387250661850D-06 5.153677366257D+03
    1.728000000000D+05-1.993030309677D-07 1.744817885891D+00 8.940696716309D-08
    9.529276446214D-01 2.359375000000D+02 1.451829542048D+00-8.473924401536D-09
   -1.346484657919D-10 1.000000000000D+00 1.549000000000D+03 0.000000000000D+00
    2.000000000000D+00 0.000000000000D+00-7.916241884232D-09 4.300000000000D+01
    1.705920000000D+05 4.000000000000D+00
 2 09  9 15  0  0  0.0 1.724935136735D-04 2.955857780762D-12 0.000000000000D+00
    6.800000000000D+01 2.312500000000D+01 5.518444151064D-09-2.149750173838D+00
    1.220032572746D-06 9.086833102629D-03 5.731359124184D-06 5.153700345993D+03
    1.728000000000D+05-2.402812242508D-07-2.415199430088D+00-1.862645149231D-07
    9.408669734689D-01 2.594687500000D+02 2.893782558413D+00-8.511425963627D-09
    1.203621564241D-10 1.000000000000D+00 1.549000000000D+03 0.000000000000D+00
    2.000000000000D+00 0.000000000000D+00-1.722946763039D-08 6.800000000000D+01
    1.707720000000D+05 4.000000000000D+00
31 09  9 15  0  0  0.0-6.435718387365D-05 4.547473508865D-13 0.000000000000D+00
    4.000000000000D+01 2.787500000000D+01 4.309465220810D-09 2.256461219010D+00
    1.540407538414D-06 7.041837554425D-03 1.767650246620D-06 5.153786785126D+03
    1.728000000000D+05 2.235174179077D-08 7.397128029560D-01 6.891787052155D-08
    9.740535904761D-01 3.494375000000D+02-1.139287896600D+00-8.239271770169D-09
    1.439345668810D-10 1.000000000000D+00 1.549000000000D+03 0.000000000000D+00
    2.000000000000D+00 0.000000000000D+00-1.303851604462D-08 4.000000000000D+01
    1.715220000000D+05 4.000000000000D+00
 4 09  9 15  0  0  0.0-2.658800221980D-04-1.728039933369D-11 0.000000000000D+00
    8.800000000000D+01 2.596875000000D+01 5.612019477423D-09 6.920608373517D-01
    1.566484570503D-06 8.741959696636D-03 5.437061190605D-06 5.153792476654D+03
    1.728000000000D+05 3.539025783539D-08-2.396962643572D+00 4.284083843231D-08
    9.400445896818D-01 2.617187500000D+02 5.133715455398D-01-8.701076720485D-09
    1.178620522847D-11 1.000000000000D+00 1.549000000000D+03 0.000000000000D+00
    2.000000000000D+00 0.000000000000D+00-6.053596735001D-09 8.800000000000D+01
    1.668720000000D+05 4.000000000000D+00
20 09  9 15  2  0  0.0 7.227063179016D-05-9.094947017729D-13 0.000000000000D+00
    3.600000000000D+01-1.221875000000D+01 5.195930717085D-09 1.483081489394D+00
   -7.357448339462D-07 3.843368263915D-03 8.836388587952D-06 5.153770961761D+03
    1.800000000000D+05-1.154839992523D-07-1.380016755831D+00-1.061707735062D-07
    9.401550853473D-01 1.973437500000D+02 1.324790192475D+00-8.331775623326D-09
   -6.125255141463D-10 1.000000000000D+00 1.549000000000D+03 0.000000000000D+00
    2.000000000000D+00 0.000000000000D+00-7.450580596924D-09 3.600000000000D+01
    1.728180000000D+05 4.000000000000D+00
17 09  9 15  1 59 44.0 8.502323180437D-05 2.955857780762D-12 0.000000000000D+00
    4.000000000000D+00-2.162500000000D+01 4.440899266994D-09-2.996955189499D-02
   -1.020729541779D-06 4.648235044442D-03 1.149438321590D-05 5.153738620758D+03
    1.799840000000D+05 5.774199962616D-08 2.854039196703D+00 3.539025783539D-08
    9.602829670458D-01 1.612187500000D+02-2.643978485414D+00-7.912472443380D-09
    4.750197864808D-10 1.000000000000D+00 1.549000000000D+03 0.000000000000D+00
    2.000000000000D+00 0.000000000000D+00-1.024454832077D-08 4.000000000000D+00
    1.728180000000D+05 4.000000000000D+00
32 09  9 15  2  0  0.0 1.964280381799D-04-7.048583938740D-12 0.000000000000D+00
    2.000000000000D+01 5.093750000000D+00 4.518759653049D-09-2.053599176489D+00
    3.557652235031D-07 1.324566488620D-02 1.012533903122D-05 5.153719043732D+03
    1.800000000000D+05-8.940696716309D-08-1.268079233939D+00 2.663582563400D-07
    9.621910145236D-01 1.825312500000D+02-1.119199327899D+00-7.844612473883D-09
   -6.743138021622D-10 1.000000000000D+00 1.549000000000D+03 0.000000000000D+00
    2.000000000000D+00 0.000000000000D+00-3.259629011154D-09 2.000000000000D+01
    1.728180000000D+05 4.000000000000D+00
 4 09  9 15  2  0  0.0-2.660048194230D-04-1.739408617141D-11 0.000000000000D+00
    8.900000000000D+01 2.675000000000D+01 5.615233897031D-09 1.742118183221D+00
    1.510605216026D-06 8.742307778448D-03 5.917623639107D-06 5.153793617249D+03
    1.800000000000D+05-1.769512891769D-07-2.397026239547D+00 2.086162567139D-07
    9.400454454889D-01 2.569687500000D+02 5.134305391742D-01-8.628930858177D-09
    2.167947446570D-10 1.000000000000D+00 1.549000000000D+03 0.000000000000D+00
    2.000000000000D+00 0.000000000000D+00-6.053596735001D-09 8.900000000000D+01
    1.728180000000D+05 4.000000000000D+00
12 09  9 15  2  0  0.0-2.188268117607D-04 5.684341886081D-12 0.000000000000D+00
    7.500000000000D+01-1.119375000000D+02 4.229819046084D-09-2.772715808891D+00
   -5.757436156273D-06 3.099970868789D-03 7.227063179016D-06 5.153578014374D+03
    1.800000000000D+05 0.000000000000D+00 1.794310802236D+00 6.705522537231D-08
    9.678173594206D-01 2.411875000000D+02-5.874801622440D-01-8.033548915273D-09
   -1.542921411727D-10 1.000000000000D+00 1.549000000000D+03 0.000000000000D+00
    2.000000000000D+00 0.000000000000D+00-1.164153218269D-08 7.500000000000D+01
    1.728180000000D+05 4.000000000000D+00
23 09  9 15  2  0  0.0 3.885668702424D-04-3.410605131648D-13 0.000000000000D+00
    6.800000000000D+01 1.003437500000D+02 4.044097024302D-09-1.179617421789D+00
    5.109235644341D-06 6.468420149758D-03 1.043453812599D-05 5.153578947067D+03
    1.800000000000D+05-3.352761268616D-08-3.000215785201D-01-1.210719347000D-07
    9.700609637329D-01 1.836875000000D+02 2.970951383227D+00-7.872113619416D-09
    4.321608583773D-11 1.000000000000D+00 1.549000000000D+03 0.000000000000D+00
    2.000000000000D+00 0.000000000000D+00-2.002343535423D-08 6.800000000000D+01
    1.728180000000D+05 4.000000000000D+00
30 09  9 15  2  0  0.0 1.769838854671D-04 3.069544618484D-12 0.000000000000D+00
    4.700000000000D+01-1.100000000000D+02 4.695552731476D-09 1.011090041719D+00
   -5.925074219704D-06 1.191255601589D-02 6.806105375290D-06 5.153673852921D+03
    1.800000000000D+05-1.620501279831D-07 1.744757211364D+00-8.195638656616D-08
    9.529261451303D-01 2.453125000000D+02 1.451754510443D+00-8.474638717005D-09
   -2.267951612145D-10 1.000000000000D+00 1.549000000000D+03 0.000000000000D+00
    2.000000000000D+00 0.000000000000D+00-7.916241884232D-09 4.700000000000D+01
    1.728180000000D+05 4.000000000000D+00
 2 09  9 15  2  0  0.0 1.725153997540D-04 2.955857780762D-12 0.000000000000D+00
    6.900000000000D+01 2.434375000000D+01 5.571660653459D-09-1.099566976052D+00
    1.249834895134D-06 9.086759178899D-03 5.677342414856D-06 5.153700550079D+03
    1.800000000000D+05 6.705522537231D-08-2.415262612057D+00-9.126961231232D-08
    9.408684817374D-01 2.594375000000D+02 2.893772076605D+00-8.634288224190D-09
    3.546576300567D-10 1.000000000000D+00 1.549000000000D+03 0.000000000000D+00
    2.000000000000D+00 0.000000000000D+00-1.722946763039D-08 6.900000000000D+01
    1.728180000000D+05 4.000000000000D+00
31 09  9 15  2  0  0.0-6.435438990593D-05 4.547473508865D-13 0.000000000000D+00
    4.400000000000D+01 2.412500000000D+01 4.396968865688D-09-2.976552435734D+00
    1.344829797745D-06 7.042157114483D-03 1.868233084679D-06 5.153785947800D+03
    1.800000000000D+05 2.421438694000D-08 7.396538254136D-01-5.587935447693D-09
    9.740543658227D-01 3.533125000000D+02-1.139348505296D+00-8.240700401106D-09
    8.036049019412D-11 1.000000000000D+00 1.549000000000D+03 0.000000000000D+00
    2.000000000000D+00 0.000000000000D+00-1.303851604462D-08 4.400000000000D+01
    1.728180000000D+05 4.000000000000D+00
